satname,norad_id,inclination_deg,eccentricity,mean_motion_rev_per_day,perigee_km,apogee_km,l1,l2
STARLINK-1230,45189,53.1554,0.0003052,15.32753152,465.5130819456599,469.69172127640195,1 45189U 20012M   26131.94716096  .00028404  00000+0  89367-3 0  9990,2 45189  53.1554 105.5887 0003052  75.3936 284.7405 15.32753152341854
STARLINK-1234,45190,53.0418,0.0007922,15.70876479,351.0557068541093,361.72589270007666,1 45190U 20012N   26131.91490841  .00044894  00000+0  35519-3 0  9997,2 45190  53.0418  13.9732 0007922 133.1774 226.9906 15.70876479345799
STARLINK-1269,45197,53.1545,0.0002916,15.32659511,465.88493625116735,469.8775340859165,1 45197U 20012V   26131.35621944  .00031959  00000+0  10066-2 0  9999,2 45197  53.1545 108.1939 0002916  54.4571 305.6703 15.32659511344515
STARLINK-1154,45198,53.0415,0.0002984,15.5616064,396.75865694860204,400.80312154490457,1 45198U 20012W   26131.82513629  .00076439  00000+0  10694-2 0  9991,2 45198  53.0415  66.4561 0002984  33.0697 327.0499 15.56160640345095
STARLINK-1199,45201,53.1558,0.0002814,15.32768099,465.63151821202064,469.48427529991477,1 45201U 20012Z   26131.91371870  .00033120  00000+0  10390-2 0  9999,2 45201  53.1558  89.8576 0002814  91.3194 268.8130 15.32768099344847
STARLINK-1209,45206,53.0413,0.0011083,15.62021698,374.325861551436,389.309977626197,1 45206U 20012AE  26131.91107507  .00088522  00000+0  98719-3 0  9996,2 45206  53.0413  26.9351 0011083 124.0648 236.1418 15.62021698344768
STARLINK-1231,45212,53.0377,0.0004244,15.26160943,484.3878632096894,490.215247455455,1 45212U 20012AL  26131.84305515  .00027012  00000+0  10409-2 0  9990,2 45212  53.0377  84.5174 0004244  22.7518 337.3667 15.26160943344855
STARLINK-1271,45217,53.1564,0.0002808,15.32738532,465.7236376720821,469.56822936754725,1 45217U 20012AR  26131.91366377  .00035710  00000+0  11200-2 0  9990,2 45217  53.1564  90.0050 0002808  87.0407 273.0916 15.32738532344843
STARLINK-1191,45222,53.1547,0.0004953,15.36522968,453.01545173623526,459.78574468102124,1 45222U 20012AW  26131.24548707  .00043681  00000+0  12112-2 0  9990,2 45222  53.1547  66.8810 0004953  94.1761 265.9809 15.36522968345110
STARLINK-1212,45223,53.0416,0.0004397,15.64530362,371.6205953662384,377.5589432871848,1 45223U 20012AX  26131.95731236  .00070978  00000+0  72183-3 0  9994,2 45223  53.0416  42.6361 0004397  73.4639 286.6858 15.64530362345509
STARLINK-1215,45225,53.1559,0.0002565,15.33013694,465.071005342792,468.582471740664,1 45225U 20012AZ  26131.52384930  .00034826  00000+0  10834-2 0  9990,2 45225  53.1559  66.1142 0002565 114.8223 245.3046 15.33013694345109
STARLINK-1221,45227,53.0661,0.0002636,15.44011386,432.4887142584139,436.0802228566372,1 45227U 20012BB  26131.86816712  .00009435  00000+0  21253-3 0  9993,2 45227  53.0661 329.7259 0002636 174.1801 185.9235 15.44011386346468
STARLINK-1222,45228,53.0541,0.0001028,15.53364693,406.2129319609385,407.6079377135411,1 45228U 20012BC  26131.04277162  .00025119  00000+0  39676-3 0  9999,2 45228  53.0541  42.9898 0001028  63.6058 296.5057 15.53364693345304
STARLINK-1226,45229,53.156,0.0003507,15.41238101,440.0621636775668,444.8461263066656,1 45229U 20012BD  26131.83356412  .00015946  00000+0  38671-3 0  9994,2 45229  53.1560  62.3542 0003507 104.5673 255.5722 15.41238101345126
STARLINK-1227,45230,53.1551,0.0004338,15.41377479,439.08437987578054,445.0015680211782,1 45230U 20012BE  26131.52129291  .00046081  00000+0  10898-2 0  9999,2 45230  53.1551  63.9652 0004338 104.5760 255.5727 15.41377479345191
STARLINK-1246,45235,53.1548,0.0003279,15.32903886,464.90905182222195,469.39819341253497,1 45235U 20012BK  26131.62513958  .00033643  00000+0  10506-2 0  9998,2 45235  53.1548 106.5854 0003279  87.6603 272.4774 15.32903886344613
STARLINK-1270,45237,53.0428,0.0004412,15.57551928,391.7564244721225,397.73281521347144,1 45237U 20012BM  26131.74083495  .00072924  00000+0  96935-3 0  9997,2 45237  53.0428  43.9045 0004412  93.6711 266.4805 15.57551928345469
STARLINK-1279,45360,53.0367,0.0009222,15.70919707,350.0567860751644,362.47772128064844,1 45360U 20019A   26131.76654169  .00045618  00000+0  35994-3 0  9993,2 45360  53.0367 149.5114 0009222  20.9600 339.1793 15.70919707340548
STARLINK-1301,45361,53.0383,0.0006513,15.73108532,345.63691766762986,354.40101362848327,1 45361U 20019B   26131.78360318  .00047953  00000+0  34507-3 0  9999,2 45361  53.0383 152.5133 0006513  39.0551 321.0936 15.73108532340513
STARLINK-1262,45366,53.1529,0.0002632,15.31927527,468.25938709287675,471.86427895858196,1 45366U 20019G   26131.57803793  .00014630  00000+0  47890-3 0  9995,2 45366  53.1529 233.0664 0002632 352.3816   7.7145 15.31927527339388
STARLINK-1273,45367,53.0455,0.0005364,15.53594701,402.6015988473655,409.87987928583607,1 45367U 20019H   26131.63706866  .00060809  00000+0  93752-3 0  9993,2 45367  53.0455 213.2161 0005364 323.7415  36.3231 15.53594701339652
STARLINK-1277,45369,53.0447,0.0006221,15.59695724,384.32744886749697,392.74654465426556,1 45369U 20019K   26131.51097132  .00071023  00000+0  87083-3 0  9991,2 45369  53.0447 209.1455 0006221 312.1280  47.9203 15.59695724339706
STARLINK-1281,45370,53.1591,0.0003579,15.32884119,464.76251996444716,469.66242111546035,1 45370U 20019L   26131.67123216  .00032240  00000+0  10081-2 0  9994,2 45370  53.1591 232.4312 0003579 349.2050  10.8875 15.32884119339409
STARLINK-1300,45374,53.1582,0.0003585,15.33130999,464.0237856577478,468.9313743115972,1 45374U 20019Q   26131.69045015  .00037024  00000+0  11463-2 0  9990,2 45374  53.1582 232.3210 0003585 359.3879   0.7118 15.33130999339406
STARLINK-1302,45375,53.0466,0.0004363,15.64765338,370.96780852812117,376.85964799360136,1 45375U 20019R   26131.38695716  .00029627  00000+0  30325-3 0  9995,2 45375  53.0466 206.6469 0004363 343.0284  17.0583 15.64765338339729
STARLINK-1304,45376,53.0437,0.0005526,15.58973161,386.8872572455284,394.3680959661133,1 45376U 20019S   26131.49223848  .00074395  00000+0  93696-3 0  9993,2 45376  53.0437 206.4512 0005526 334.2170  25.8566 15.58973161339730
STARLINK-1305,45377,53.0388,0.001016,15.65074223,366.1661227018676,379.884484502787,1 45377U 20019T   26131.51988795  .00028831  00000+0  29114-3 0  9994,2 45377  53.0388 186.4476 0010160 347.3981  12.6778 15.65074223340029
STARLINK-1319,45379,53.0411,0.0004947,15.73250402,346.286260486987,352.94269780045124,1 45379U 20019V   26131.85134051  .00045845  00000+0  32834-3 0  9998,2 45379  53.0411 177.7610 0004947   7.7599 352.3495 15.73250402340179
STARLINK-1266,45383,53.0454,0.0005322,15.55400743,397.3801187385152,404.5958193555689,1 45383U 20019Z   26131.89251381  .00067398  00000+0  97129-3 0  9998,2 45383  53.0454 189.4435 0005322 332.2716  27.8010 15.55400743340005
STARLINK-1267,45384,53.046,0.0007448,15.61316855,378.81591910108637,388.88857828594155,1 45384U 20019AA  26131.84025155  .00082127  00000+0  94382-3 0  9997,2 45384  53.0460 181.4246 0007448  14.8375 345.2855 15.61316855340113
STARLINK-1272,45386,53.0397,0.0008474,15.667164,362.58998866491675,374.0238618294261,1 45386U 20019AC  26131.36882547  .00033300  00000+0  31418-3 0  9992,2 45386  53.0397 163.4706 0008474   5.8630 354.2483 15.66716400340324
STARLINK-1274,45387,53.0226,0.0009489,15.57223326,389.2696944031786,402.12507730064954,1 45387U 20019AD  26131.49688328  .00064152  00000+0  86374-3 0  9998,2 45387  53.0226 160.3507 0009489  28.2075 331.9448 15.57223326340378
STARLINK-1280,45388,53.0379,0.0005809,15.73922761,343.7913006164117,351.605376112524,1 45388U 20019AE  26131.81037510  .00048292  00000+0  33566-3 0  9998,2 45388  53.0379 170.4787 0005809  14.0074 346.1105 15.73922761340256
STARLINK-1283,45389,53.0399,0.0004388,15.67991432,361.69039090052775,367.6078600042247,1 45389U 20019AF  26131.79134867  .00034069  00000+0  30554-3 0  9990,2 45389  53.0399 160.7314 0004388  33.7012 326.4282 15.67991432340406
STARLINK-1284,45390,53.0409,0.0004625,15.67077875,364.14967492921824,370.389175872715,1 45390U 20019AG  26131.85426807  .00032438  00000+0  30216-3 0  9990,2 45390  53.0409 184.0912 0004625 319.7791  40.2882 15.67077875340074
STARLINK-1297,45395,53.0417,0.000637,15.65536994,367.3951711207865,375.9944568518058,1 45395U 20019AM  26131.84144136  .00030035  00000+0  29794-3 0  9996,2 45395  53.0417 182.8690 0006370 329.4338  30.6304 15.65536994339273
STARLINK-1307,45397,53.0528,0.0001938,15.54849117,401.2771579598202,403.9053682345966,1 45397U 20019AP  26131.44548283  .00023626  00000+0  35410-3 0  9995,2 45397  53.0528 188.4707 0001938  22.8871 337.2225 15.54849117339809
STARLINK-1255,45399,53.036,0.0006634,15.62100156,377.1071635542239,386.0759714175647,1 45399U 20019AR  26131.37695959  .00076704  00000+0  85638-3 0  9994,2 45399  53.0360 158.4048 0006634  17.0678 343.0557 15.62100156340200
STARLINK-1260,45404,53.1572,0.0005318,15.35443147,455.9682319871654,463.2408538922364,1 45404U 20019AW  26131.89209316  .00033013  00000+0  95153-3 0  9995,2 45404  53.1572 194.6311 0005318 356.7487   3.3481 15.35443147339667
STARLINK-1263,45405,53.1579,0.0003834,15.32916457,464.4917283376608,469.74066849020437,1 45405U 20019AX  26131.35991087  .00031141  00000+0  97328-3 0  9996,2 45405  53.1579 197.8671 0003834  16.8000 343.3129 15.32916457339577
STARLINK-1265,45406,53.1572,0.0005057,15.35733719,455.28460570097286,462.19942513716705,1 45406U 20019AY  26131.89095690  .00036171  00000+0  10315-2 0  9999,2 45406  53.1572 194.6950 0005057 351.6994   8.3924 15.35733719339669
STARLINK-1278,45408,53.0401,0.0006646,15.6622803,365.2246522746973,374.19388953798534,1 45408U 20019BA  26131.37238552  .00032449  00000+0  31259-3 0  9995,2 45408  53.0401 184.2855 0006646 352.0237   8.0671 15.66228030339755
STARLINK-1296,45412,53.1557,0.0005616,15.35966497,454.21203522097403,461.89044185049715,1 45412U 20019BE  26131.86931980  .00036870  00000+0  10433-2 0  9991,2 45412  53.1557 194.5301 0005616 346.4056  13.6795 15.35966497339666
